[{"OBJECT_NAME":"STARLINK-30161","OBJECT_ID":"2023-107V","EPOCH":"2026-03-08T03:18:12.420864","MEAN_MOTION":15.26741769,"ECCENTRICITY":0.00028074,"INCLINATION":43.0039,"RA_OF_ASC_NODE":344.5252,"ARG_OF_PERICENTER":264.6186,"MEAN_ANOMALY":95.4345,"EPHEMERIS_TYPE":0,"CLASSIFICATION_TYPE":"U","NORAD_CAT_ID":57476,"ELEMENT_SET_NO":999,"REV_AT_EPOCH":14491,"BSTAR":-2.4473232e-5,"MEAN_MOTION_DOT":-9.17e-6,"MEAN_MOTION_DDOT":0},{"OBJECT_NAME":"FLOCK 4G-26","OBJECT_ID":"2025-009AA","EPOCH":"2026-03-09T19:19:02.910720","MEAN_MOTION":15.27281631,"ECCENTRICITY":0.0001988,"INCLINATION":97.4054,"RA_OF_ASC_NODE":151.3913,"ARG_OF_PERICENTER":299.1273,"MEAN_ANOMALY":60.9767,"EPHEMERIS_TYPE":0,"CLASSIFICATION_TYPE":"U","NORAD_CAT_ID":62633,"ELEMENT_SET_NO":999,"REV_AT_EPOCH":6373,"BSTAR":0.00042468806,"MEAN_MOTION_DOT":0.00011283,"MEAN_MOTION_DDOT":0}]
