STARLINK-30161          
1 57476U 23107V   26067.13764376 -.00000917  00000+0 -24473-4 0  9992
2 57476  43.0039 344.5252 0002807 264.6186  95.4345 15.26741769144912
FLOCK 4G-26             
1 62633U 25009AA  26068.80489479  .00011283  00000+0  42469-3 0  9999
2 62633  97.4054 151.3913 0001988 299.1273  60.9767 15.27281631 63733
